<?xml version="1.0" encoding="UTF-8"?>
<gpx xmlns="http://www.topografix.com/GPX/1/1" xmlns:gpxtpx="http://www.garmin.com/xmlschemas/TrackPointExtension/v1" xmlns:xsi="http://www.w3.org/2001/XMLSchema-instance" xsi:schemaLocation="http://www.topografix.com/GPX/1/1 http://www.topografix.com/GPX/1/1/gpx.xsd" version="1.1" creator="gpx.py -- https://github.com/tkrajina/gpxpy">
  <trk>
    <name>gpx from keep</name>
    <type>Walk</type>
    <trkseg>
      <trkpt lat="27.89683499987875" lon="110.62777404017582">
        <ele>158.70351791381836</ele>
        <time>2026-06-19T06:47:29.500000Z</time>
      </trkpt>
      <trkpt lat="27.89711873105115" lon="110.62772283640935">
        <ele>161.15896224975586</ele>
        <time>2026-06-19T06:47:37.900000Z</time>
      </trkpt>
    </trkseg>
  </trk>
</gpx>