<?xml version="1.0" encoding="UTF-8"?>
<gpx xmlns="http://www.topografix.com/GPX/1/1" xmlns:gpxtpx="http://www.garmin.com/xmlschemas/TrackPointExtension/v1" xmlns:xsi="http://www.w3.org/2001/XMLSchema-instance" xsi:schemaLocation="http://www.topografix.com/GPX/1/1 http://www.topografix.com/GPX/1/1/gpx.xsd" version="1.1" creator="gpx.py -- https://github.com/tkrajina/gpxpy">
  <trk>
    <name>gpx from keep</name>
    <type>Walk</type>
    <trkseg>
      <trkpt lat="39.863776283801116" lon="116.40747211919">
        <ele>46.523710957728326</ele>
        <time>2026-08-30T08:10:05Z</time>
      </trkpt>
      <trkpt lat="39.86350405729429" lon="116.40746856439611">
        <ele>45.363587136380374</ele>
        <time>2026-08-30T08:10:32.900000Z</time>
      </trkpt>
      <trkpt lat="39.86323476998101" lon="116.40754539522179">
        <ele>45.26214327197522</ele>
        <time>2026-08-30T08:11:45Z</time>
      </trkpt>
      <trkpt lat="39.86351052936332" lon="116.40747005608857">
        <ele>45.789412170648575</ele>
        <time>2026-08-30T08:12:57.900000Z</time>
      </trkpt>
      <trkpt lat="39.86377409915897" lon="116.40738694524588">
        <ele>45.030441127717495</ele>
        <time>2026-08-30T08:14:07Z</time>
      </trkpt>
      <trkpt lat="39.86386623558887" lon="116.40705150581692">
        <ele>46.350578201934695</ele>
        <time>2026-08-30T08:14:30Z</time>
      </trkpt>
      <trkpt lat="39.86386101684306" lon="116.40668812316365">
        <ele>45.58822388201952</ele>
        <time>2026-08-30T08:14:54.900000Z</time>
      </trkpt>
      <trkpt lat="39.86380673747976" lon="116.40633351420801">
        <ele>45.86331453360617</ele>
        <time>2026-08-30T08:15:20Z</time>
      </trkpt>
      <trkpt lat="39.863769691170525" lon="116.40597551695996">
        <ele>46.18994887638837</ele>
        <time>2026-08-30T08:15:43Z</time>
      </trkpt>
      <trkpt lat="39.863824748373474" lon="116.40562898438752">
        <ele>45.61810611654073</ele>
        <time>2026-08-30T08:16:17Z</time>
      </trkpt>
      <trkpt lat="39.864081074654415" lon="116.40551078140689">
        <ele>46.11199873685837</ele>
        <time>2026-08-30T08:16:52.900000Z</time>
      </trkpt>
      <trkpt lat="39.86433425746505" lon="116.40537833085598">
        <ele>33.81062226649374</ele>
        <time>2026-08-30T08:17:41Z</time>
      </trkpt>
    </trkseg>
  </trk>
</gpx>