<?xml version="1.0" encoding="UTF-8"?>
<gpx xmlns="http://www.topografix.com/GPX/1/1" xmlns:gpxtpx="http://www.garmin.com/xmlschemas/TrackPointExtension/v1" xmlns:xsi="http://www.w3.org/2001/XMLSchema-instance" xsi:schemaLocation="http://www.topografix.com/GPX/1/1 http://www.topografix.com/GPX/1/1/gpx.xsd" version="1.1" creator="gpx.py -- https://github.com/tkrajina/gpxpy">
  <trk>
    <name>gpx from keep</name>
    <type>Walk</type>
    <trkseg>
      <trkpt lat="39.86883191164107" lon="116.40732258052168">
        <ele>44.879106521606445</ele>
        <time>2026-08-30T08:02:53.600000Z</time>
      </trkpt>
      <trkpt lat="39.8643264964448" lon="116.40742065719746">
        <ele>45.75089333951473</ele>
        <time>2026-08-30T08:08:54Z</time>
      </trkpt>
    </trkseg>
  </trk>
</gpx>