<?xml version="1.0" encoding="UTF-8"?>
<gpx xmlns="http://www.topografix.com/GPX/1/1" xmlns:gpxtpx="http://www.garmin.com/xmlschemas/TrackPointExtension/v1" xmlns:xsi="http://www.w3.org/2001/XMLSchema-instance" xsi:schemaLocation="http://www.topografix.com/GPX/1/1 http://www.topografix.com/GPX/1/1/gpx.xsd" version="1.1" creator="gpx.py -- https://github.com/tkrajina/gpxpy">
  <trk>
    <name>gpx from keep</name>
    <type>Walk</type>
    <trkseg>
      <trkpt lat="28.124948317608816" lon="112.91285234442826">
        <ele>40.72429275512695</ele>
        <time>2026-09-15T12:38:35.700000Z</time>
      </trkpt>
      <trkpt lat="28.125290163972668" lon="112.91191482421435">
        <ele>29.37500762939453</ele>
        <time>2026-09-15T12:38:38Z</time>
      </trkpt>
      <trkpt lat="28.125212174878783" lon="112.91158619147795">
        <ele>41.61786651611328</ele>
        <time>2026-09-15T12:38:41Z</time>
      </trkpt>
      <trkpt lat="28.12527871644584" lon="112.91126024972212">
        <ele>43.63819122314453</ele>
        <time>2026-09-15T12:38:43.900000Z</time>
      </trkpt>
    </trkseg>
  </trk>
</gpx>