<?xml version="1.0" encoding="UTF-8"?>
<gpx xmlns="http://www.topografix.com/GPX/1/1" xmlns:gpxtpx="http://www.garmin.com/xmlschemas/TrackPointExtension/v1" xmlns:xsi="http://www.w3.org/2001/XMLSchema-instance" xsi:schemaLocation="http://www.topografix.com/GPX/1/1 http://www.topografix.com/GPX/1/1/gpx.xsd" version="1.1" creator="gpx.py -- https://github.com/tkrajina/gpxpy">
  <trk>
    <name>gpx from keep</name>
    <type>Walk</type>
    <trkseg>
      <trkpt lat="27.910526998010845" lon="110.57228689870536">
        <ele>204.29206263117158</ele>
        <time>2026-06-20T01:15:02.900000Z</time>
      </trkpt>
      <trkpt lat="27.91078918471141" lon="110.57279374405832">
        <ele>237.3222312927246</ele>
        <time>2026-06-20T01:17:15.900000Z</time>
      </trkpt>
    </trkseg>
  </trk>
</gpx>