<?xml version="1.0" encoding="UTF-8"?>
<gpx xmlns="http://www.topografix.com/GPX/1/1" xmlns:gpxtpx="http://www.garmin.com/xmlschemas/TrackPointExtension/v1" xmlns:xsi="http://www.w3.org/2001/XMLSchema-instance" xsi:schemaLocation="http://www.topografix.com/GPX/1/1 http://www.topografix.com/GPX/1/1/gpx.xsd" version="1.1" creator="gpx.py -- https://github.com/tkrajina/gpxpy">
  <trk>
    <name>gpx from keep</name>
    <type>Walk</type>
    <trkseg>
      <trkpt lat="39.998017008391244" lon="116.27267945760005">
        <ele>64.61738721840084</ele>
        <time>2026-08-29T03:43:32Z</time>
      </trkpt>
      <trkpt lat="39.99789906664222" lon="116.27327358710625">
        <ele>60.483711356297135</ele>
        <time>2026-08-29T03:44:38Z</time>
      </trkpt>
      <trkpt lat="39.99804467125948" lon="116.27358081101278">
        <ele>62.33737806044519</ele>
        <time>2026-08-29T03:45:48Z</time>
      </trkpt>
      <trkpt lat="39.99856664213259" lon="116.2747396781476">
        <ele>58.62350082397461</ele>
        <time>2026-08-29T03:47:31Z</time>
      </trkpt>
      <trkpt lat="39.99970050835049" lon="116.2762233900743">
        <ele>49.33401107788086</ele>
        <time>2026-08-29T03:53:41Z</time>
      </trkpt>
      <trkpt lat="39.999558326141184" lon="116.27591987631192">
        <ele>49.53469467163086</ele>
        <time>2026-08-29T03:54:04Z</time>
      </trkpt>
      <trkpt lat="39.996739957566376" lon="116.27440004972634">
        <ele>46.44845199584961</ele>
        <time>2026-08-29T04:03:36Z</time>
      </trkpt>
      <trkpt lat="39.99702256159329" lon="116.28014719002364">
        <ele>49.12749042455107</ele>
        <time>2026-08-29T04:11:06Z</time>
      </trkpt>
    </trkseg>
  </trk>
</gpx>