<?xml version="1.0" encoding="UTF-8"?>
<gpx xmlns="http://www.topografix.com/GPX/1/1" xmlns:gpxtpx="http://www.garmin.com/xmlschemas/TrackPointExtension/v1" xmlns:xsi="http://www.w3.org/2001/XMLSchema-instance" xsi:schemaLocation="http://www.topografix.com/GPX/1/1 http://www.topografix.com/GPX/1/1/gpx.xsd" version="1.1" creator="gpx.py -- https://github.com/tkrajina/gpxpy">
  <trk>
    <name>gpx from keep</name>
    <type>Walk</type>
    <trkseg>
      <trkpt lat="28.22533728568163" lon="112.9047736509488">
        <ele>69.43</ele>
        <time>2026-06-21T13:45:48.700000Z</time>
      </trkpt>
      <trkpt lat="28.22987016457846" lon="112.90391189097399">
        <ele>57.865964565303685</ele>
        <time>2026-06-21T13:52:22.900000Z</time>
      </trkpt>
    </trkseg>
  </trk>
</gpx>