<?xml version="1.0" encoding="UTF-8"?>
<gpx xmlns="http://www.topografix.com/GPX/1/1" xmlns:gpxtpx="http://www.garmin.com/xmlschemas/TrackPointExtension/v1" xmlns:xsi="http://www.w3.org/2001/XMLSchema-instance" xsi:schemaLocation="http://www.topografix.com/GPX/1/1 http://www.topografix.com/GPX/1/1/gpx.xsd" version="1.1" creator="gpx.py -- https://github.com/tkrajina/gpxpy">
  <trk>
    <name>gpx from keep</name>
    <type>Walk</type>
    <trkseg>
      <trkpt lat="39.9983113097671" lon="116.26749006912326">
        <ele>106.81130612175912</ele>
        <time>2026-08-29T03:31:37.200000Z</time>
      </trkpt>
      <trkpt lat="39.99828584999165" lon="116.26806109724231">
        <ele>102.01844491250813</ele>
        <time>2026-08-29T03:32:48.900000Z</time>
      </trkpt>
      <trkpt lat="39.99827356266235" lon="116.26868797637769">
        <ele>102.38003968819976</ele>
        <time>2026-08-29T03:34:29.900000Z</time>
      </trkpt>
      <trkpt lat="39.99846152999531" lon="116.26892438462687">
        <ele>105.42187587823719</ele>
        <time>2026-08-29T03:36:35Z</time>
      </trkpt>
      <trkpt lat="39.99847414209389" lon="116.27001313837043">
        <ele>94.51828890107572</ele>
        <time>2026-08-29T03:38:13Z</time>
      </trkpt>
    </trkseg>
  </trk>
</gpx>